GLOBALSTAR M063         
1 26081U 00008A   24171.81802862 -.00000046  00000+0  53546-3 0  9991
2 26081  51.9975 345.9111 0004218 349.7657 115.3403 11.86156042114574
GLOBALSTAR M062         
1 26082U 00008B   24171.92170574 -.00000098  00000+0  30769-5 0  9993
2 26082  51.9853  81.0718 0007652  57.6161  21.5443 12.43438420451552
GLOBALSTAR M060         
1 26083U 00008C   24171.90294347  .00000054  00000+0  14404-2 0  9993
2 26083  52.0038 349.8825 0004208 107.5785 353.9598 12.17633938108234
GLOBALSTAR M065         
1 31571U 07020A   24171.74035906 -.00000057  00000+0  25994-3 0  9999
2 31571  51.9888 249.4078 0009968 222.8189 289.1991 12.61971818787641
GLOBALSTAR M072         
1 31574U 07020D   24171.62023098 -.00000093  00000+0  60660-4 0  9998
2 31574  52.0099 301.5356 0000958 137.9794 236.0869 12.62273474787039
